92P/Sanguin,e,19.4814,181.3660,163.7864,5.343900,0.0797841,0.66010543,292.4738,03/21.0/2025,2000,g 12.0,6.0
# From MPEC 2024-R10
93P/Lovas,e,12.2087,339.5534,75.0160,4.374614,0.1077195,0.61398814,316.0616,03/21.0/2025,2000,g  9.5,6.0
# From MPEC 2024-R10
94P/Russell,e,6.1877,70.8500,92.3736,3.510091,0.1498741,0.36593827,100.3963,03/21.0/2025,2000,g  9.0,6.0
# From MPC 75717
95P/Chiron,e,6.9269,209.1940,339.3529,13.70050,0.0194357,0.37805329,208.0348,03/21.0/2025,2000,g  6.5,2.0
# From MPEC 2025-D44
96P/Machholz,e,57.5869,93.9628,14.7363,3.031034,0.1867746,0.96169559,145.6332,03/21.0/2025,2000,g 13.0,4.8
# From MPC106348
96P-B/Machholz,e,57.5029,14.6156,94.0017,3.030009,0.1868694,0.96172790,145.7258,03/21.0/2025,2000,g 13.0,4.8
# From MPC103849
96P-C/Machholz,e,58.5311,94.3495,15.5380,3.011920,0.1885553,0.95889850,359.8715,07/14.0/2012,2000,g  9.0,4.0
# From MPEC 2024-GJ3
97P/Metcalf-Brewington,e,17.9401,184.0763,230.1832,4.769406,0.0946254,0.46004391,106.8288,03/21.0/2025,2000,g  5.5,6.0
# From MPEC 2021-W31
98P/Takamizawa,e,10.6190,114.5406,157.7079,3.784033,0.1338973,0.56520248,205.7394,03/21.0/2025,2000,g  9.0,8.0
# From MPEC 2024-R10
99P/Kowal,e,4.3391,28.0711,174.5466,6.094142,0.0655142,0.22868623,70.5531,03/21.0/2025,2000,g  4.5,6.0
# From MPEC 2023-OA6
100P/Hartley,e,25.5675,37.6857,181.9352,3.430365,0.1551292,0.41138268,147.9475,03/21.0/2025,2000,g  9.0,8.0
# From MPEC 2024-R10
101P/Chernykh,e,5.0485,116.1276,277.9715,5.816832,0.0702545,0.59574429,133.0477,03/21.0/2025,2000,g 10.0,4.8
# From MPC105241
101P-B/Chernykh,e,5.0502,278.5101,115.5923,5.832373,0.0699739,0.59595526,131.2729,03/21.0/2025,2000,g  9.0,4.0
# From MPEC 2022-C56
102P/Shoemaker,e,25.8563,339.3989,20.6785,3.819888,0.1320165,0.45609209,200.5662,03/21.0/2025,2000,g  6.5,8.0
# From MPEC 2025-EG2
103P/Hartley,e,13.6089,219.7546,181.3247,3.475481,0.1521184,0.69356845,79.9447,03/21.0/2025,2000,g  8.5,8.0
# From MPEC 2023-G31
104P/Kowal,e,5.7014,207.1901,227.2938,3.208671,0.1714812,0.66592629,199.5423,03/21.0/2025,2000,g 16.0,4.0
# From MPEC 2024-F34
105P/SingerBrewster,e,9.1673,192.3957,46.3314,3.472956,0.1522843,0.40912257,8.7178,03/21.0/2025,2000,g 11.5,6.0
# From MPEC 2024-R10
106P/Schuster,e,19.5357,48.8653,353.7952,3.768102,0.1347473,0.59362050,176.4998,03/21.0/2025,2000,g 14.0,4.8
# From MPEC 2015-M77
107P/Wilson-Harrington,e,2.7986,266.7280,95.5206,2.625902,0.2316254,0.63102542,217.6506,03/21.0/2025,2000,g  9.0,4.0
# From MPEC 2022-P82
108P/Ciffreo,e,11.4335,50.3008,354.5297,3.743610,0.1360718,0.55577904,175.1958,03/21.0/2025,2000,g  8.0,12.0
# From  105, 420
109P/Swift-Tuttle,e,113.1575,139.6725,153.2728,26.20676,0.0073466,0.96282216,86.5287,03/21.0/2025,2000,g  4.0,6.0
# From MPEC 2023-KD6
110P/Hartley,e,11.7111,287.4822,167.5503,3.603654,0.1440753,0.31921502,179.8885,03/21.0/2025,2000,g  1.0,12.0
# From MPC 75718
111P/Helin-Roman-Crockett,e,4.2262,89.8100,1.3977,4.152829,0.1164630,0.10719476,159.6080,03/21.0/2025,2000,g  5.0,8.0
# From MPEC 2021-S45
112P/Urata-Niijima,e,24.2035,31.8173,21.5438,3.522605,0.1490761,0.59086112,278.0413,03/21.0/2025,2000,g 14.0,6.0
# From MPEC 2024-JU4
113P/Spitaler,e,5.2875,306.6255,115.7239,3.695803,0.1387206,0.41975070,141.9347,03/21.0/2025,2000,g 13.5,4.0
# From MPEC 2023-A50
114P/Wiseman-Skiff,e,18.3042,271.0272,172.8029,3.540219,0.1479650,0.55613826,279.6641,03/21.0/2025,2000,g 11.5,6.0
# From MPEC 2023-J29
115P/Maury,e,11.6788,175.9987,120.9167,4.271516,0.1116429,0.51766643,189.5815,03/21.0/2025,2000,g 10.5,6.0
# From MPEC 2024-RQ6
116P/Wild,e,3.6044,20.9608,173.1630,3.486273,0.1514126,0.37059828,148.1298,03/21.0/2025,2000,g  2.5,10.0
# From MPEC 2025-EB9
117P/Helin-Roman-Alu,e,8.6890,58.8281,224.5125,4.112846,0.1181654,0.25371951,116.0836,03/21.0/2025,2000,g  2.5,8.0
# From MPEC 2024-MB8
118P/Shoemaker-Levy,e,10.0912,142.0588,314.9396,3.348857,0.1608271,0.45381923,136.2688,03/21.0/2025,2000,g 12.0,4.0
# From MPEC 2024-R10
119P/Parker-Hartley,e,7.3928,104.5436,322.2576,3.808970,0.1325845,0.38818727,126.1620,03/21.0/2025,2000,g  3.5,8.0
# From MPEC 2022-CN4
120P/Mueller,e,8.4822,358.7093,36.7769,3.969588,0.1246195,0.37427194,176.1271,03/21.0/2025,2000,g 12.0,4.0
# From MPEC 2025-EB9
121P/Shoemaker-Holt,e,20.1621,94.1051,11.9266,4.588736,0.1002685,0.18671490,63.1218,03/21.0/2025,2000,g  6.5,8.0
# From MPC 75718
122P/de Vico,e,86.0393,79.7439,13.0015,17.63260,0.0133116,0.96257966,143.3045,03/21.0/2025,2000,g  7.5,5.2
# From MPEC 2021-F20
123P/West-Hartley,e,15.2805,45.9005,103.9709,3.883086,0.1288067,0.44449413,289.1231,03/21.0/2025,2000,g 12.2,4.0
# From MPEC 2024-UQ8
124P/Mrkos,e,31.4087,0.0042,185.1233,3.376363,0.1588658,0.48644454,286.9780,03/21.0/2025,2000,g 13.5,2.8
# From MPEC 2024-UA9
125P/Spacewatch,e,9.9858,153.1497,87.1136,3.127975,0.1781596,0.51200078,67.4786,03/21.0/2025,2000,g 13.0,6.0
# From MPEC 2024-JU4
126P/IRAS,e,45.8708,357.8584,356.5663,5.628805,0.0738040,0.69609466,46.1192,03/21.0/2025,2000,g  6.0,8.0
# From MPEC 2024-R10
127P/Holt-Olmstead,e,14.2965,13.6158,6.3398,3.454148,0.1535298,0.35885070,146.4459,03/21.0/2025,2000,g 11.0,6.0
# From MPC 89014
128P/Shoemaker-Holt,e,4.3707,214.3243,210.4750,4.482733,0.1038460,0.32239827,309.8736,03/21.0/2025,2000,g  8.5,4.0
# From MPEC 2024-R10
129P/Shoemaker-Levy,e,3.4420,184.8486,307.8146,4.293669,0.1107800,0.08590677,92.9442,03/21.0/2025,2000,g 11.0,4.0
# From MPEC 2025-EB9
130P/McNaught-Hughes,e,6.0626,70.1810,246.2234,3.384759,0.1582750,0.46111356,53.7994,03/21.0/2025,2000,g 10.0,6.0
# From MPEC 2025-A40
131P/Mueller,e,7.3617,214.1390,179.2320,3.675167,0.1398906,0.34479842,313.6131,03/21.0/2025,2000,g 11.0,4.0
# From MPEC 2024-BE0
132P/Helin-Roman-Alu,e,5.3784,173.9825,216.5027,3.892114,0.1283588,0.56413864,157.1045,03/21.0/2025,2000,g 11.0,6.0
# From MPC 94676
133P/Elst-Pizarro,e,1.3899,160.1008,131.8704,3.163126,0.1751981,0.15569717,55.1676,03/21.0/2025,2000,g 15.4,2.0
# From MPC 89012
134P/Kowal-Vavrova,e,4.3335,201.9970,18.6744,6.272251,0.0627435,0.58541453,249.8837,03/21.0/2025,2000,g 11.5,4.0
# From MPEC 2024-C04
135P/Shoemaker-Levy,e,6.0633,213.0200,22.3873,3.801342,0.1329838,0.29360508,143.5648,03/21.0/2025,2000,g  7.0,8.0
# From MPEC 2025-CE3
136P/Mueller,e,9.4275,137.4226,225.2996,4.185069,0.1151198,0.29310603,8.8215,03/21.0/2025,2000,g 11.0,4.0
# From MPEC 2023-J29
137P/Shoemaker-Levy,e,4.8602,232.9257,141.2232,4.523420,0.1024480,0.57307769,234.3778,03/21.0/2025,2000,g 11.0,4.0
# From MPEC 2016-U66
138P/Shoemaker-Levy,e,10.0995,309.2722,95.6834,3.617352,0.1432577,0.53157775,307.2402,03/21.0/2025,2000,g 15.0,6.0
# From MPEC 2020-HN5
139P/Vaisala-Oterma,e,2.3375,242.1822,165.9615,4.513954,0.1027705,0.24834524,272.2669,03/21.0/2025,2000,g  9.5,4.0
# From MPEC 2015-E14
140P/Bowell-Skiff,e,3.7068,343.3780,172.1679,6.411930,0.0607045,0.69536604,214.9424,03/21.0/2025,2000,g 11.5,6.0
# From MPEC 2024-R10
141P/Machholz,e,13.9625,241.7764,153.6446,3.057087,0.1843921,0.73592516,286.6199,03/21.0/2025,2000,g 12.0,12.0
# From MPEC 2015-KD9
141P-A/Machholz,e,13.9416,153.5091,241.9238,3.057303,0.1843726,0.73594326,286.5604,03/21.0/2025,2000,g 12.0,12.0
# From MPC 24216
141P-B/Machholz,e,13.9855,153.5851,241.8128,3.055675,0.1845200,0.73570335,287.9744,03/21.0/2025,2000,g  9.0,4.0
# From MPC 37026
141P-D/Machholz,e,13.8334,153.2353,242.1721,3.065812,0.1836055,0.73689057,282.2307,03/21.0/2025,2000,g  9.0,4.0
# From MPEC 2015-R12
141P-E/Machholz,e,12.8152,246.1856,149.2667,3.012914,0.1884620,0.75023267,359.9529,09/19.0/1994,2000,g  9.0,4.0
# From MPEC 2015-R12
141P-F/Machholz,e,12.7898,246.1881,149.2374,3.010224,0.1887147,0.75000946,359.9630,09/19.0/1994,2000,g  9.0,4.0
# From MPEC 2015-R12
141P-G/Machholz,e,12.8259,246.3146,149.0784,3.005818,0.1891298,0.74964304,359.9802,09/19.0/1994,2000,g  9.0,4.0
# From MPC 95735
141P-H/Machholz,e,12.8431,246.0900,149.4500,3.008012,0.1889230,0.74682218,359.9270,08/24.0/2015,2000,g 18.5,4.0
# From MPEC 2022-SU8
141P-I/Machholz,e,13.9416,153.4638,241.9336,3.047769,0.1852384,0.73517089,288.0176,03/21.0/2025,2000,g 17.5,4.0
# From MPEC 2024-C04
142P/Ge-Wang,e,12.2454,175.9580,174.0718,5.003471,0.0880637,0.49604333,124.1219,03/21.0/2025,2000,g  8.5,6.0
# From MPEC 2025-DP4
143P/Kowal-Mrkos,e,5.5137,242.7791,304.4220,4.778701,0.0943494,0.38713177,299.2797,03/21.0/2025,2000,g 13.5,2.0
# From MPEC 2024-YC7
144P/Kushida,e,3.9319,242.9242,216.3525,3.833350,0.1313217,0.63497410,55.1795,03/21.0/2025,2000,g  8.5,8.0
# From MPC108598
145P/Shoemaker-Levy,e,11.2765,26.7966,10.3727,4.130867,0.1173930,0.54250607,322.7992,03/21.0/2025,2000,g 13.5,4.0
# From MPEC 2025-CE3
146P/Shoemaker-LINEAR,e,23.1194,53.3675,317.0611,4.026854,0.1219706,0.64757787,27.7569,03/21.0/2025,2000,g 15.0,4.0
# From MPEC 2024-UQ8
147P/Kushida-Muramatsu,e,2.3115,91.6669,348.5970,4.009780,0.1227505,0.21185835,57.6341,03/21.0/2025,2000,g 14.0,4.0
# From MPEC 2024-JU4
148P/Anderson-LINEAR,e,3.6590,89.1951,8.0753,3.620104,0.1430944,0.55039392,144.6368,03/21.0/2025,2000,g 16.0,2.0
# From MPEC 2023-J29
149P/Mueller,e,34.2330,143.7765,30.2694,4.128716,0.1174847,0.32441464,285.3160,03/21.0/2025,2000,g  8.0,8.0
# From MPEC 2024-NE4
150P/LONEOS,e,18.5485,272.0557,246.1219,3.871716,0.1293745,0.54918007,48.3203,03/21.0/2025,2000,g 13.5,4.0
# From MPEC 2022-K19
151P/Helin,e,4.7256,143.1286,216.1578,5.765897,0.0711875,0.57266792,245.3336,03/21.0/2025,2000,g 10.0,6.0
# From MPEC 2025-EB9
152P/Helin-Lawrence,e,9.8796,91.7767,164.4464,4.485528,0.1037490,0.30705247,120.5857,03/21.0/2025,2000,g 11.5,4.0
# From MPC 46101
153P/Ikeya-Zhang,e,28.4952,93.7983,34.2307,50.45152,0.0027504,0.99013641,0.0000,03/11.1498/2002,2000,g  9.0,4.0
# From MPEC 2025-EB9
154P/Brewington,e,17.6366,342.9977,47.9420,4.797124,0.0938064,0.67633488,26.3373,03/21.0/2025,2000,g  2.5,12.0
# From MPEC 2022-YN2
155P/Shoemaker,e,6.4106,97.1568,14.5268,6.571587,0.0585058,0.72764344,114.1338,03/21.0/2025,2000,g 10.0,4.8
# From MPEC 2023-J29
156P/Russell-LINEAR,e,17.2626,35.3367,0.5243,3.462601,0.1529679,0.61492589,242.1489,03/21.0/2025,2000,g 15.5,2.0
# From MPEC 2024-D33
